{"street":"026 Brigitte Union","city":"Harrisborough","zipCode":"04124","state":"CO","companies":["Schimmel","Okuneva"]}
{"street":"3528 Justine Turnpike","city":"Yostburgh","zipCode":"08721-5760","state":"WV","companies":["Brekke"]}
{"street":"65642 Mraz Summit","city":"Jacobistad","zipCode":"28797-2645","state":"MS","companies":["Bode","Schimmel","Okuneva"]}
{"street":"074 Gaylord Knoll","city":"Janyfurt","zipCode":"96835","state":"LA","companies":["Hauck","Erdman LLC","Reynolds"]}
{"street":"62752 Randy Fields","city":"Trompland","zipCode":"29088-8314","state":"KY","companies":["Lind","Bode","Hammes Inc"]}
{"street":"968 Duncan Land","city":"Tessieville","zipCode":"45694","state":"NC","companies":["Okuneva"]}
{"street":"45520 Hoppe Crescent","city":"East Malika","zipCode":"22463","state":"WA","companies":["Roob"]}
{"street":"79224 Isaias Summit","city":"Howellchester","zipCode":"47677-5905","state":"NJ","companies":["Parker","Lind","Lind","Jerde","Parker"]}
{"street":"7105 Kenya Loaf","city":"Ebertport","zipCode":"86224-9214","state":"FL","companies":["Sanford","Littel Group"]}
{"street":"569 Mikayla Estates","city":"Lake Effieland","zipCode":"09330","state":"LA","companies":["Littel Group","Rowe"]}
{"street":"77445 Liliana Road","city":"Isaiahtown","zipCode":"96953-4166","state":"RI","companies":["Bechtelar"]}
{"street":"818 Gaylord Coves","city":"West Lisandrohaven","zipCode":"07495-7919","state":"MT","companies":["Powlowski","Schimmel","Lind","Reichel Inc","Brekke"]}
{"street":"77396 Nikolaus Centers","city":"Kadenbury","zipCode":"21405-3353","state":"MA","companies":["Adams Group","Schimmel","Reynolds"]}
{"street":"4243 Sage Highway","city":"Hudsonfurt","zipCode":"64849-6516","state":"CA","companies":["Littel Group","Okuneva","Reichel Inc"]}
{"street":"35086 Aufderhar Crossing","city":"New Hardyhaven","zipCode":"26327-0484","state":"GA","companies":["Littel Group","Runolfsdottir Group"]}
{"street":"1809 Noah Crescent","city":"Loyalfurt","zipCode":"25772-4171","state":"UT","companies":["Jerde","Kiehn Inc"]}
{"street":"476 Crawford Locks","city":"Parkerland","zipCode":"40248","state":"NC","companies":["Terry"]}
{"street":"45923 Zackary Prairie","city":"South Loisside","zipCode":"90330","state":"MA","companies":["Hammes Inc","Bode"]}
{"street":"019 Rath Fort","city":"Hoppeville","zipCode":"11820","state":"OH","companies":["Bechtelar","Erdman LLC","Hammes Inc"]}
{"street":"250 Mariam Valleys","city":"Christiansenfort","zipCode":"37712","state":"HI","companies":["Erdman LLC","Hodkiewicz","Powlowski"]}
{"street":"2377 Derick Freeway","city":"East Franz","zipCode":"79298","state":"VT","companies":["Roob","Roob","Brekke","Erdman LLC"]}
{"street":"78510 Pfeffer Trail","city":"Ritchieburgh","zipCode":"84292","state":"CO","companies":["Lind","Rowe","Runolfsdottir Group"]}
{"street":"382 Simone Manors","city":"West Lupebury","zipCode":"64116-7700","state":"VT","companies":["Terry"]}
{"street":"864 Euna Valley","city":"Starkstad","zipCode":"58173","state":"NH","companies":["Hodkiewicz","Okuneva","Reilly"]}
{"street":"5707 Skiles Vista","city":"Port Chasityhaven","zipCode":"21090-2553","state":"OR","companies":["Roob","O'Connell","Buckridge","Hodkiewicz"]}
{"street":"88475 Grimes Prairie","city":"West Durwardmouth","zipCode":"88079-9713","state":"IA","companies":["Kiehn Inc","Reynolds"]}
{"street":"05735 Langosh Walks","city":"Jennifertown","zipCode":"39833-9547","state":"KY","companies":["Altenwerth"]}
{"street":"464 Bashirian Street","city":"Lake Nonaborough","zipCode":"59570-6033","state":"NV","companies":["Bode","Parker"]}
{"street":"61461 Lesch Ways","city":"Lake Nikki","zipCode":"84013","state":"FL","companies":["Jerde","Roob","O'Connell"]}
{"street":"6697 Lia Hill","city":"Wildermantown","zipCode":"43445","state":"OH","companies":["Schimmel"]}
{"street":"0779 Schuppe Islands","city":"Elenaborough","zipCode":"83563-9417","state":"NJ","companies":["Monahan"]}
{"street":"65049 Barrett Street","city":"Kemmermouth","zipCode":"54193-2245","state":"MS","companies":["Adams Group","Reynolds","Hodkiewicz"]}
{"street":"38784 Derek Court","city":"Ocieville","zipCode":"70666","state":"TX","companies":["Parker","Sanford","Bode"]}
{"street":"388 Hessel Corners","city":"Gaylordmouth","zipCode":"76586-6646","state":"OH","companies":["Sanford","Reynolds","Terry"]}
{"street":"91260 Filomena Drive","city":"Port Santashire","zipCode":"29709-8287","state":"NY","companies":["Schimmel","Littel Group"]}
{"street":"686 Weimann Path","city":"Stewartberg","zipCode":"95068","state":"MO","companies":["Sanford","Sanford"]}
{"street":"1549 Yost Pass","city":"Port Sherman","zipCode":"77367","state":"UT","companies":["Erdman LLC","Terry","Borer Group"]}
{"street":"04472 Morissette Mountains","city":"North Reagan","zipCode":"67795-4588","state":"ME","companies":["Lind","Altenwerth","Reynolds","Hammes Inc"]}
{"street":"22535 Kunze Extension","city":"New Guidoburgh","zipCode":"79158-2653","state":"ID","companies":["Rowe"]}
{"street":"1935 Stiedemann Haven","city":"South Walterburgh","zipCode":"21271-0463","state":"CT","companies":["Reilly"]}
{"street":"5398 Devin Parkway","city":"Murraystad","zipCode":"28191-3302","state":"GA","companies":["Schamberger","Terry","Littel Group","Borer Group"]}
{"street":"787 Mills Wall","city":"Hilbertchester","zipCode":"11940","state":"CO","companies":["Sanford","Terry","Roob","Reichel Inc"]}
{"street":"783 Nicklaus Radial","city":"Lake Maybellberg","zipCode":"47419-2811","state":"KY","companies":["Schimmel"]}
{"street":"4975 Darwin Rapid","city":"South Timmothyhaven","zipCode":"95797-8187","state":"OH","companies":["Parker","Reynolds"]}
{"street":"1462 Vince Estates","city":"North Elisa","zipCode":"90463","state":"IA","companies":["Roob"]}
{"street":"937 Abshire Tunnel","city":"Port June","zipCode":"82663","state":"PA","companies":["Reichel Inc","O'Connell","Borer Group"]}
{"street":"70411 Roberts Hill","city":"Verdiemouth","zipCode":"10024","state":"ID","companies":["Sanford","Littel Group"]}
{"street":"49256 Aron Isle","city":"Schaeferfurt","zipCode":"53404-3637","state":"NC","companies":["O'Connell","Schimmel","Terry"]}
{"street":"2790 Wolff Plaza","city":"East Noemi","zipCode":"55307-8256","state":"DE","companies":["Hodkiewicz"]}
{"street":"54289 Halvorson Path","city":"Evetown","zipCode":"18936-7187","state":"WV","companies":["Rowe"]}
{"street":"39248 Wuckert Station","city":"Collinsmouth","zipCode":"75370","state":"OH","companies":["Borer Group","Hodkiewicz"]}
{"street":"515 Reilly View","city":"Ransomport","zipCode":"39894","state":"CO","companies":["O'Connell","Roob","Jerde"]}
{"street":"305 Anastasia Landing","city":"Gregoriaville","zipCode":"37881","state":"MO","companies":["Monahan","Parker"]}
{"street":"87552 Rempel Estate","city":"West Norris","zipCode":"70131","state":"WV","companies":["Hammes Inc"]}
{"street":"97164 Pattie Tunnel","city":"Port Harrison","zipCode":"72361-7458","state":"NM","companies":["Adams Group","Sanford","Buckridge"]}
{"street":"196 Jenifer Forges","city":"Rosettahaven","zipCode":"89131-2686","state":"NC","companies":["Schamberger","Terry"]}
{"street":"87256 Jennings Harbor","city":"Stephaniachester","zipCode":"30210","state":"IA","companies":["Sanford","Hauck"]}
{"street":"347 Wilfredo Station","city":"Aidafurt","zipCode":"75278-4124","state":"CT","companies":["Hodkiewicz","Rowe","Hauck"]}
{"street":"5087 Kiana Squares","city":"West Diana","zipCode":"83825-7382","state":"CA","companies":["Schamberger"]}
{"street":"08108 Dicki Knoll","city":"Gloverport","zipCode":"10228-8040","state":"ID","companies":["Brekke","Runolfsdottir Group"]}
{"street":"9078 Gaylord Knolls","city":"Rolfsonbury","zipCode":"23913-3145","state":"OH","companies":["Buckridge","Reichel Inc","Terry"]}
{"street":"2982 Jaida Locks","city":"Charlieshire","zipCode":"97663","state":"GA","companies":["Rowe","Terry"]}
{"street":"07629 Crooks Islands","city":"Port Dejon","zipCode":"97910","state":"WI","companies":["Littel Group","Reichel Inc"]}
{"street":"4029 Wintheiser Rapids","city":"Lewport","zipCode":"18993","state":"TX","companies":["Sanford","O'Connell"]}
{"street":"24306 Rowe Stravenue","city":"Gerholdmouth","zipCode":"86429-7397","state":"HI","companies":["Buckridge"]}
{"street":"228 Little Road","city":"North Isabelle","zipCode":"09095-8381","state":"NY","companies":["Bechtelar","Altenwerth"]}
{"street":"5680 Morar Gateway","city":"South Richardfort","zipCode":"50576-9888","state":"HI","companies":["Roob","Buckridge","Schimmel"]}
{"street":"9802 Hanna Pine","city":"East Evamouth","zipCode":"40446","state":"UT","companies":["Bechtelar"]}
{"street":"1989 Leanna Inlet","city":"Kovacekside","zipCode":"64535-9815","state":"VT","companies":["Monahan","Lind"]}
{"street":"7616 Beau Mall","city":"Schneidertown","zipCode":"58342","state":"MN","companies":["Rowe","Reilly","Schimmel"]}
{"street":"40630 Holden Divide","city":"North Newton","zipCode":"45392-4814","state":"MO","companies":["Okuneva","Erdman LLC","Altenwerth"]}
{"street":"4246 Klein Estate","city":"West Avisshire","zipCode":"95740-1031","state":"SC","companies":["Rowe","Littel Group","Erdman LLC","Schimmel"]}
{"street":"45277 Aliza Ville","city":"Brianabury","zipCode":"01770-6025","state":"IA","companies":["Jerde","Terry"]}
{"street":"31424 Abbott Mill","city":"South Nicklausburgh","zipCode":"49793-8995","state":"CO","companies":["Erdman LLC","Littel Group"]}
{"street":"89433 Bashirian Mall","city":"Lake Neoma","zipCode":"18045","state":"NE","companies":["Roob","Hodkiewicz","Hodkiewicz"]}
{"street":"9202 Jacinthe Forest","city":"Marcelochester","zipCode":"75766-0956","state":"NY","companies":["Borer Group","Parker","Adams Group","Powlowski"]}
{"street":"8829 Breitenberg Lodge","city":"Gleasonmouth","zipCode":"06664","state":"ID","companies":["Schimmel","Jerde","Rowe"]}
{"street":"9447 Rasheed Court","city":"West Leon","zipCode":"83499-5042","state":"KY","companies":["Runolfsdottir Group","O'Connell","O'Connell","Altenwerth"]}
{"street":"990 Harvey Junctions","city":"Lake Zackeryport","zipCode":"15592","state":"IL","companies":["Lind","Borer Group"]}
{"street":"07941 Cronin Bridge","city":"Camrenton","zipCode":"35984","state":"HI","companies":["Reilly","Erdman LLC","Borer Group","Erdman LLC"]}
{"street":"74746 Mabel Junction","city":"New Chadrickfort","zipCode":"23681","state":"WV","companies":["Bechtelar","Littel Group"]}
{"street":"7573 Wilderman Estates","city":"Port Markustown","zipCode":"25299","state":"SC","companies":["Reichel Inc"]}
{"street":"4027 Ullrich Ferry","city":"McCulloughfurt","zipCode":"31951-1074","state":"ND","companies":["Adams Group","Parker"]}
{"street":"235 Wuckert Lights","city":"South Brionnaborough","zipCode":"82031-0460","state":"MS","companies":["Bode","Hauck","Okuneva","Reilly"]}
{"street":"063 Hoeger Pass","city":"Rydermouth","zipCode":"28428","state":"NJ","companies":["Kiehn Inc"]}
{"street":"0091 Greenholt Springs","city":"Spinkashire","zipCode":"88530-1408","state":"MD","companies":["Lind","Sanford","Rowe","Hodkiewicz","Reynolds"]}
{"street":"7050 Streich Ville","city":"South Budstad","zipCode":"08157","state":"AZ","companies":["Monahan","Parker"]}
{"street":"24302 Sierra Hill","city":"Jacyntheshire","zipCode":"61357-6358","state":"HI","companies":["Terry","Hauck"]}
{"street":"14342 Stamm Ridges","city":"Lake Hailee","zipCode":"06497","state":"MI","companies":["Adams Group","Reichel Inc"]}
{"street":"638 Gunner Well","city":"Lake Johanna","zipCode":"21185","state":"CO","companies":["Reilly"]}
{"street":"264 Kaylah Freeway","city":"Immanuelberg","zipCode":"50851","state":"UT","companies":["Altenwerth","Schamberger","Okuneva"]}
{"street":"4031 Charlie Knoll","city":"Madysonville","zipCode":"96212","state":"GA","companies":["Reichel Inc","Powlowski","Terry"]}
{"street":"3133 Marcia Club","city":"East Alicehaven","zipCode":"48798-2597","state":"IN","companies":["Reynolds","Erdman LLC","Rowe","Okuneva"]}
{"street":"210 Thelma Passage","city":"Torpport","zipCode":"00342","state":"WV","companies":["Brekke","Terry","Rowe"]}
{"street":"922 Rick Mill","city":"Hesselshire","zipCode":"49866","state":"MT","companies":["Okuneva","Reilly","Borer Group","Runolfsdottir Group"]}
{"street":"05519 Gottlieb Plains","city":"Annabelside","zipCode":"89317","state":"NJ","companies":["Monahan","Lind","Powlowski","Bechtelar"]}
{"street":"1332 Jamison Port","city":"South Otisville","zipCode":"34100-7916","state":"NM","companies":["Monahan","Hodkiewicz"]}
{"street":"83015 Bud Club","city":"Lake Paxtonberg","zipCode":"01310-5972","state":"KS","companies":["Parker"]}
{"street":"257 Blanda Haven","city":"East Diegoshire","zipCode":"82586-2479","state":"ID","companies":["Okuneva","Schamberger","Reichel Inc","Brekke","Jerde"]}
{"street":"002 Dena Street","city":"New Kaychester","zipCode":"66977-6794","state":"ND","companies":["Powlowski"]}
